0 COSMOS 1694
1 16142U 85094E   13282.57961185  .00000026  00000-0  83999-4 0  1888
2 16142 082.6093 334.2052 0012262 157.0715 319.5274 12.63672774291662
0 COSMOS 1694
1 16142U 85094E   13287.15266183  .00000012  00000-0  49904-5 0  1900
2 16142 082.6085 331.2919 0012405 147.2853 242.7387 12.63673015292241
0 COSMOS 1694
1 16142U 85094E   13289.45636757  .00000021  00000-0  55628-4 0  1913
2 16142 082.6085 329.8248 0012405 141.9921 282.8662 12.63673042292539
0 COSMOS 1694
1 16142U 85094E   13291.53519802  .00000006  00000-0 -25425-4 0  1923
2 16142 082.6083 328.5000 0012458 137.5798 019.6162 12.63673239292797
0 COSMOS 1694
1 16142U 85094E   13293.59584352  .00000011  00000-0  29272-5 0  1934
2 16142 082.6076 327.1864 0012558 133.6873 033.1625 12.63672991293053
0 COSMOS 1694
1 16142U 85094E   13296.18737925  .00000016  00000-0  31210-4 0  1948
2 16142 082.6081 325.5354 0012564 127.8089 302.6252 12.63673024293380
